{"fetched_at": "2026-06-03T17:23:43.840976+00:00", "line1": "1 49062U 21071A   26154.08734587 -.00000279  00000+0  00000+0 0  9999", "line2": "2 49062   0.0388  91.1354 0002182  45.8607 244.0692  1.00271035 17899"}
{"fetched_at": "2026-06-04T17:16:33.425142+00:00", "line1": "1 49062U 21071A   26155.20113999 -.00000279  00000+0  00000+0 0  9992", "line2": "2 49062   0.0411  93.3738 0002219  44.8874 284.8640  1.00270506 17901"}
